ISS (ZARYA)             
1 25544U 98067A   19141.68818287  .00000663  00000-0  18020-4 0  9994
2 25544  51.6411 132.8270 0001720  16.2944 320.0395 15.52692945171132
TIANGONG-2              
1 41765U 16057A   19141.46307413  .00003118  00000-0  39730-4 0  9995
2 41765  42.7815 126.2596 0006454  75.1707  66.7184 15.61562826152865
BANXING-2               
1 41834U 16057H   19141.10349868  .00098453  12602-4  14788-3 0  9999
2 41834  42.7750   0.2909 0015944 259.4964 238.4405 16.03900180148297
PHOENIX                 
1 42706U 98067LP  19128.42254485  .08245211  12410-4  57150-3 0  9990
2 42706  51.5998 109.6560 0003143 270.9046 228.4560 16.40380041113340
ALTAIR PATHFINDER       
1 42711U 98067LS  19141.44667608  .00028879  00000-0  16275-3 0  9990
2 42711  51.6353  76.0810 0003737  56.3576 303.7781 15.78935140114620
SHARC                   
1 42712U 98067LT  19123.64217769  .08981558  12375-4  84912-3 0  9997
2 42712  51.6192 152.4129 0003348 312.8737 146.7300 16.37776182112255
ZA-AEROSAT              
1 42713U 98067LU  19141.46258011  .00483302  13247-3  45423-3 0  9991
2 42713  51.6238  48.7081 0003815 214.8092 145.2674 16.11439881114989
CSUNSAT1                
1 42715U 98067LW  19125.26904075  .15894941  12567-4  41505-3 0  9994
2 42715  51.6151 127.9321 0004619 278.8566  95.8002 16.45622418112486
NJUST-1                 
1 42722U 98067MB  19141.31824163  .00108290  15699-4  29794-3 0  9999
2 42722  51.6359  59.0460 0005504  94.5972   2.5924 15.93804729113906
NSIGHT                  
1 42726U 98067MF  19141.33723627  .00017271  00000-0  14301-3 0  9990
2 42726  51.6367  93.6353 0006174  68.1172 292.0482 15.70347519113366
KESTREL EYE IIM (KE2M)  
1 42982U 98067NE  19141.39769078  .00007131  00000-0  84774-4 0  9996
2 42982  51.6366 115.0884 0004971  41.3084 318.8286 15.62371006 89499
ASTERIA                 
1 43020U 98067NH  19141.28118644  .00012614  00000-0  10970-3 0  9993
2 43020  51.6423 104.6954 0003041  39.2819 320.8398 15.69476461 85398
DELLINGR (RBLE)         
1 43021U 98067NJ  19141.44924280  .00006694  00000-0  78942-4 0  9998
2 43021  51.6376 114.7195 0002737  18.2197 341.8895 15.62703486 85277
1KUNS-PF                
1 43466U 98067NP  19141.38375036  .00014872  00000-0  15209-3 0  9996
2 43466  51.6366 118.0117 0002073  43.3542 316.7616 15.65263910 58487
UBAKUSAT                
1 43467U 98067NQ  19141.46321606  .00008792  00000-0  10357-3 0  9993
2 43467  51.6363 120.7894 0002509 353.3428   6.7532 15.62257787 58461
BATSU-CS1 (IRAZU)       
1 43468U 98067NR  19141.35696657  .00021349  00000-0  19541-3 0  9990
2 43468  51.6359 115.5671 0002414  47.9785 312.1417 15.67740760158504
CUBERRT                 
1 43546U 98067NU  19140.43919227  .00012783  00000-0  14158-3 0  9997
2 43546  51.6368 127.4463 0006399  28.2649 331.8692 15.63364481 48418
TEMPEST-D               
1 43547U 98067NV  19141.18040567  .00003268  00000-0  50116-4 0  9996
2 43547  51.6376 129.3946 0006288  20.9766 339.1482 15.57574972 48139
RAINCUBE                
1 43548U 98067NW  19141.17660347  .00009736  00000-0  12035-3 0  9993
2 43548  51.6358 126.3606 0006555  32.7902 327.3497 15.60831995 48624
HALOSAT                 
1 43549U 98067NX  19141.17901147  .00006531  00000-0  83071-4 0  9999
2 43549  51.6368 126.3841 0006435  35.1325 325.0092 15.60745392 48182
RADIX                   
1 43550U 98067NY  19141.16634104  .00018817  00000-0  19336-3 0  9998
2 43550  51.6347 122.5163 0005885  47.7791 312.3702 15.64924398 48692
ENDUROSAT ONE           
1 43551U 98067NZ  19141.16341637  .00012187  00000-0  14167-3 0  9996
2 43551  51.6366 124.7849 0006991  41.4363 318.7160 15.62160760 48617
EQUISAT                 
1 43552U 98067PA  19140.54649083  .00009799  00000-0  12000-3 0  9993
2 43552  51.6374 128.9293 0007154  38.3958 321.7544 15.61068302 48464
1998-067PB              
1 43553U 98067PB  19140.44236502  .00009365  00000-0  11964-3 0  9998
2 43553  51.6387 130.5036 0007235  36.8098 323.3390 15.60009382 48482
1998-067PC              
1 43554U 98067PC  19140.37234389  .00015160  00000-0  17304-3 0  9996
2 43554  51.6365 128.5019 0007099  38.1603 321.9893 15.62407143 48034
AEROCUBE 12A            
1 43556U 18046C   19141.21421496  .00001465  00000-0  64451-4 0  9997
2 43556  51.6419 193.2481 0008249 330.5665  29.4849 15.28636846 47208
AEROCUBE 12B            
1 43557U 18046D   19140.63699340  .00001263  00000-0  57529-4 0  9992
2 43557  51.6415 196.1418 0008143 328.5922  31.4571 15.28512010 47068
LEMUR-2-VU              
1 43558U 18046E   19140.55817503  .00002683  00000-0  10562-3 0  9999
2 43558  51.6406 195.6411 0007588 329.4898  30.5640 15.29236634 47108
LEMUR-2-ALEXANDER       
1 43559U 18046F   19140.61757331  .00002626  00000-0  10336-3 0  9995
2 43559  51.6411 195.2895 0007643 330.2607  29.7938 15.29331746 46892
LEMUR-2-YUASA           
1 43560U 18046G   19140.56118186  .00002017  00000-0  82586-4 0  9991
2 43560  51.6418 195.6543 0008011 343.2773  16.7942 15.29216281 47105
LEMUR-2-TOMHENDERSON    
1 43561U 18046H   19141.34193751  .00001597  00000-0  68007-4 0  9994
2 43561  51.6420 191.8686 0007926 346.2912  13.7852 15.29205285 46789
SIRIUSSAT-1             
1 43595U 98067PG  19141.15028112  .00009630  00000-0  12090-3 0  9995
2 43595  51.6352 127.6730 0004292  15.3983 344.7141 15.60444604 43388
SIRIUSSAT-2             
1 43596U 98067PH  19141.17770990  .00009985  00000-0  12588-3 0  9991
2 43596  51.6364 127.8863 0004846  14.6980 345.4153 15.60282283 43389
TANUSHA-3               
1 43597U 98067PJ  19141.13741750  .00012224  00000-0  14505-3 0  9991
2 43597  51.6350 126.8142 0004720  27.5817 332.5426 15.61630607 43396
1998-067PK              
1 43598U 98067PK  19141.13769733  .00012690  00000-0  14969-3 0  9994
2 43598  51.6359 126.8323 0004947  25.3750 334.7486 15.61743728 43399
1998-067PN              
1 43638U 98067PN  19141.44238845  .00005655  00000-0  81738-4 0  9990
2 43638  51.6374 129.6448 0003206   6.6157 353.4877 15.57596139 35301
1998-067PP              
1 43639U 98067PP  19141.16673948  .00008082  00000-0  10914-3 0  9991
2 43639  51.6378 130.0565 0005867   2.9269 357.1757 15.58755962 35287
STARS-ME                
1 43640U 98067PQ  19141.14455445  .00006422  00000-0  90222-4 0  9998
2 43640  51.6362 130.6566 0005874 359.3567   0.7417 15.58102237 35271
PROGRESS-MS 10          
1 43702U 18091A   19139.52968762  .00001278  00000-0  27814-4 0  9997
2 43702  51.6418 143.5664 0001629   9.2895 133.7465 15.52689995170807
SOYUZ-MS 11             
1 43756U 18098A   19139.52968762  .00001278  00000-0  27814-4 0  9993
2 43756  51.6418 143.5664 0001629   9.2895 133.7465 15.52689995170806
ISS DEB (SEDA-AP)       
1 43870U 98067PU  19141.14980500  .00002636  00000-0  45354-4 0  9997
2 43870  51.6405 133.6870 0005061  30.1541 329.9656 15.55193524 23396
CATSAT-2                
1 44029U 98067PV  19140.45604131  .00006586  00000-0  99933-4 0  9990
2 44029  51.6380 137.3132 0005831  40.1769 319.9652 15.55936292 17020
DELPHINI                
1 44030U 98067PW  19140.45299937  .00009802  00000-0  14468-3 0  9999
2 44030  51.6368 137.2867 0005614  39.4195 320.7204 15.56049098 16993
UNITE                   
1 44031U 98067PX  19140.85977311  .00005130  00000-0  81097-4 0  9996
2 44031  51.6375 135.5040 0004104  40.2747 319.8547 15.55344993 17050
TECHEDSAT 8             
1 44032U 98067PY  19140.56500645  .00019009  00000-0  25002-3 0  9990
2 44032  51.6368 135.7857 0005190  35.1945 324.9389 15.58494817 17000
CATSAT-1                
1 44033U 98067PZ  19141.16250894  .00006099  00000-0  93030-4 0  9998
2 44033  51.6381 133.7815 0005588  42.9081 317.2345 15.55948283 17045
SOYUZ-MS 12             
1 44069U 19013A   19139.52968762  .00001278  00000-0  27814-4 0  9999
2 44069  51.6418 143.5664 0001629   9.2895 133.7465 15.52689995170804
PROGRESS-MS 11          
1 44110U 19019A   19139.52968762  .00001278  00000-0  27814-4 0  9992
2 44110  51.6418 143.5664 0001629   9.2895 133.7465 15.52689995170801
CYGNUS NG-11            
1 44188U 19022A   19139.52968762  .00001278  00000-0  27814-4 0  9991
2 44188  51.6418 143.5664 0001629   9.2895 133.7465 15.52689995170806
DRAGON CRS-17           
1 44222U 19025A   19139.52968762  .00001278  00000-0  27814-4 0  9993
2 44222  51.6418 143.5664 0001629   9.2895 133.7465 15.52689995170805
2019-025B               
1 44223U 19025B   19131.19002253  .45414413  13098-4  31219-3 0  9999
2 44223  51.6217 182.5319 0024082   4.1953  36.1954 16.51348710  1113
2019-025C               
1 44224U 19025C   19130.55739073  .42319615  12704-4  49549-3 0  9999
2 44224  51.6328 185.8249 0015314  75.0423 286.3853 16.48763339  1012
